BRO-1                   
1 44495U 19054A   26194.00726257  .01105010  79549-3  89524-3 0  9992
2 44495  44.9818 132.4627 0008972 179.7711 180.3210 16.13463787383876
BRO-5                   
1 51061U 22002CF  26195.13998351  .00021031  00000+0  39185-3 0  9996
2 51061  97.2992 269.0734 0005275 207.4108 152.6865 15.48841993250423
BRO-6                   
1 52422U 22047AE  26195.22583473  .00030798  00000+0  50290-3 0  9992
2 52422  97.3396 286.8367 0002877 316.6720  43.4306 15.52517212235341
BRO-8                   
1 55011U 23001C   26195.16459317  .00023959  00000+0  41778-3 0  9994
2 55011  97.3191 260.7665 0004985  43.3561 316.8083 15.50709340196384
BRO-11                  
1 58264U 23174J   26195.17161573  .00002863  00000+0  10872-3 0  9995
2 58264  97.3902 271.7705 0011928 110.7852 249.4666 15.27585672148874
BRO-13                  
1 59107U 24043K   26195.17007916  .00000862  00000+0  80838-4 0  9995
2 59107  97.8523 326.2792 0007486 266.3249  93.7116 14.96649120128657
BRO-12                  
1 59108U 24043L   26195.22863602  .00000512  00000+0  49869-4 0  9995
2 59108  97.8507 326.5070 0007068 260.1560  99.8863 14.96891938128681
BRO-14                  
1 60551U 24149CM  26195.14682015  .00000834  00000+0  79004-4 0  9995
2 60551  97.6862 270.4397 0006793  20.7451 339.4045 14.96233916104022
BRO-15                  
1 60553U 24149CP  26195.19637187  .00000501  00000+0  49480-4 0  9998
2 60553  97.6795 270.0656 0007958   7.4318 352.7020 14.96221496104044
BRO-16                  
1 62654U 25009AX  26195.19533056  .00002111  00000+0  89787-4 0  9991
2 62654  97.4062 275.3486 0002038 155.7253 204.4081 15.24124929 82917
BRO-18                  
1 64550U 25135Y   26195.13977807  .00002592  00000+0  11605-3 0  9994
2 64550  97.4655 309.9652 0002457 116.9902 243.1586 15.22168415 58971
BRO-17                  
1 66672U 25276G   26195.14153780  .00002145  00000+0  10832-3 0  9999
2 66672  97.4185 267.7299 0005094 263.8627  96.2027 15.18153889 34481
BRO-20                  
1 66674U 25276J   26195.18357545  .00001598  00000+0  81157-4 0  9990
2 66674  97.4162 267.7591 0004671 268.2505  91.8194 15.18321871 34492
BRO-19                  
1 68422U 26067G   26195.19155337  .00001714  00000+0  85178-4 0  9995
2 68422  97.4492 153.2652 0002545 109.1328 251.0182 15.18983916 16044
BRO-21                  
1 69007U 26100AD  26194.69429034  .00001324  00000+0  61678-4 0  9991
2 69007  97.3978  92.1503 0005177 343.0236  17.0826 15.21631889 10838
BRO-22                  
1 69504U 26132C   26195.17355876  .00000676  00000+0  59323-4 0  9997
2 69504  97.6830 258.5076 0016493 184.5697 175.5378 14.99803308  4820
