{"fetched_at":"2026-07-14T17:40:35.332Z","source":"https://celestrak.org/NORAD/elements/gp.php?NAME=BRO&FORMAT=JSON","constellation":"unseenlabs","records":[{"OBJECT_NAME":"BRO-1","OBJECT_ID":"2019-054A","EPOCH":"2026-07-13T00:10:27.486048","CLASSIFICATION_TYPE":"U","MEAN_MOTION":16.13463787,"ECCENTRICITY":0.00089724,"INCLINATION":44.9818,"RA_OF_ASC_NODE":132.4627,"ARG_OF_PERICENTER":179.7711,"MEAN_ANOMALY":180.321,"EPHEMERIS_TYPE":0,"NORAD_CAT_ID":44495,"ELEMENT_SET_NO":999,"REV_AT_EPOCH":38387,"BSTAR":0.00089524323,"MEAN_MOTION_DOT":0.0110501,"MEAN_MOTION_DDOT":0.00079549412},{"OBJECT_NAME":"BRO-5","OBJECT_ID":"2022-002CF","EPOCH":"2026-07-14T03:21:34.575264","CLASSIFICATION_TYPE":"U","MEAN_MOTION":15.48841993,"ECCENTRICITY":0.0005275,"INCLINATION":97.2992,"RA_OF_ASC_NODE":269.0734,"ARG_OF_PERICENTER":207.4108,"MEAN_ANOMALY":152.6865,"EPHEMERIS_TYPE":0,"NORAD_CAT_ID":51061,"ELEMENT_SET_NO":999,"REV_AT_EPOCH":25042,"BSTAR":0.00039185,"MEAN_MOTION_DOT":0.00021031,"MEAN_MOTION_DDOT":0},{"OBJECT_NAME":"BRO-6","OBJECT_ID":"2022-047AE","EPOCH":"2026-07-14T05:25:12.120672","CLASSIFICATION_TYPE":"U","MEAN_MOTION":15.52517212,"ECCENTRICITY":0.0002877,"INCLINATION":97.3396,"RA_OF_ASC_NODE":286.8367,"ARG_OF_PERICENTER":316.672,"MEAN_ANOMALY":43.4306,"EPHEMERIS_TYPE":0,"NORAD_CAT_ID":52422,"ELEMENT_SET_NO":999,"REV_AT_EPOCH":23534,"BSTAR":0.0005029,"MEAN_MOTION_DOT":0.00030798,"MEAN_MOTION_DDOT":0},{"OBJECT_NAME":"BRO-8","OBJECT_ID":"2023-001C","EPOCH":"2026-07-14T03:57:00.849888","CLASSIFICATION_TYPE":"U","MEAN_MOTION":15.5070934,"ECCENTRICITY":0.0004985,"INCLINATION":97.3191,"RA_OF_ASC_NODE":260.7665,"ARG_OF_PERICENTER":43.3561,"MEAN_ANOMALY":316.8083,"EPHEMERIS_TYPE":0,"NORAD_CAT_ID":55011,"ELEMENT_SET_NO":999,"REV_AT_EPOCH":19638,"BSTAR":0.00041778,"MEAN_MOTION_DOT":0.00023959,"MEAN_MOTION_DDOT":0},{"OBJECT_NAME":"BRO-11","OBJECT_ID":"2023-174J","EPOCH":"2026-07-14T04:07:07.599072","CLASSIFICATION_TYPE":"U","MEAN_MOTION":15.27585672,"ECCENTRICITY":0.0011928,"INCLINATION":97.3902,"RA_OF_ASC_NODE":271.7705,"ARG_OF_PERICENTER":110.7852,"MEAN_ANOMALY":249.4666,"EPHEMERIS_TYPE":0,"NORAD_CAT_ID":58264,"ELEMENT_SET_NO":999,"REV_AT_EPOCH":14887,"BSTAR":0.00010872,"MEAN_MOTION_DOT":0.00002863,"MEAN_MOTION_DDOT":0},{"OBJECT_NAME":"BRO-13","OBJECT_ID":"2024-043K","EPOCH":"2026-07-14T04:04:54.839424","CLASSIFICATION_TYPE":"U","MEAN_MOTION":14.9664912,"ECCENTRICITY":0.0007486,"INCLINATION":97.8523,"RA_OF_ASC_NODE":326.2792,"ARG_OF_PERICENTER":266.3249,"MEAN_ANOMALY":93.7116,"EPHEMERIS_TYPE":0,"NORAD_CAT_ID":59107,"ELEMENT_SET_NO":999,"REV_AT_EPOCH":12865,"BSTAR":0.000080838,"MEAN_MOTION_DOT":0.00000862,"MEAN_MOTION_DDOT":0},{"OBJECT_NAME":"BRO-12","OBJECT_ID":"2024-043L","EPOCH":"2026-07-14T05:29:14.152128","CLASSIFICATION_TYPE":"U","MEAN_MOTION":14.96891938,"ECCENTRICITY":0.0007068,"INCLINATION":97.8507,"RA_OF_ASC_NODE":326.507,"ARG_OF_PERICENTER":260.156,"MEAN_ANOMALY":99.8863,"EPHEMERIS_TYPE":0,"NORAD_CAT_ID":59108,"ELEMENT_SET_NO":999,"REV_AT_EPOCH":12868,"BSTAR":0.000049869,"MEAN_MOTION_DOT":0.00000512,"MEAN_MOTION_DDOT":0},{"OBJECT_NAME":"BRO-14","OBJECT_ID":"2024-149CM","EPOCH":"2026-07-14T03:31:25.260960","CLASSIFICATION_TYPE":"U","MEAN_MOTION":14.96233916,"ECCENTRICITY":0.0006793,"INCLINATION":97.6862,"RA_OF_ASC_NODE":270.4397,"ARG_OF_PERICENTER":20.7451,"MEAN_ANOMALY":339.4045,"EPHEMERIS_TYPE":0,"NORAD_CAT_ID":60551,"ELEMENT_SET_NO":999,"REV_AT_EPOCH":10402,"BSTAR":0.000079004,"MEAN_MOTION_DOT":0.00000834,"MEAN_MOTION_DDOT":0},{"OBJECT_NAME":"BRO-15","OBJECT_ID":"2024-149CP","EPOCH":"2026-07-14T04:42:46.529568","CLASSIFICATION_TYPE":"U","MEAN_MOTION":14.96221496,"ECCENTRICITY":0.0007958,"INCLINATION":97.6795,"RA_OF_ASC_NODE":270.0656,"ARG_OF_PERICENTER":7.4318,"MEAN_ANOMALY":352.702,"EPHEMERIS_TYPE":0,"NORAD_CAT_ID":60553,"ELEMENT_SET_NO":999,"REV_AT_EPOCH":10404,"BSTAR":0.00004948,"MEAN_MOTION_DOT":0.00000501,"MEAN_MOTION_DDOT":0},{"OBJECT_NAME":"BRO-16","OBJECT_ID":"2025-009AX","EPOCH":"2026-07-14T04:41:16.560384","CLASSIFICATION_TYPE":"U","MEAN_MOTION":15.24124929,"ECCENTRICITY":0.0002038,"INCLINATION":97.4062,"RA_OF_ASC_NODE":275.3486,"ARG_OF_PERICENTER":155.7253,"MEAN_ANOMALY":204.4081,"EPHEMERIS_TYPE":0,"NORAD_CAT_ID":62654,"ELEMENT_SET_NO":999,"REV_AT_EPOCH":8291,"BSTAR":0.000089787,"MEAN_MOTION_DOT":0.00002111,"MEAN_MOTION_DDOT":0},{"OBJECT_NAME":"BRO-18","OBJECT_ID":"2025-135Y","EPOCH":"2026-07-14T03:21:16.825248","CLASSIFICATION_TYPE":"U","MEAN_MOTION":15.22168415,"ECCENTRICITY":0.0002457,"INCLINATION":97.4655,"RA_OF_ASC_NODE":309.9652,"ARG_OF_PERICENTER":116.9902,"MEAN_ANOMALY":243.1586,"EPHEMERIS_TYPE":0,"NORAD_CAT_ID":64550,"ELEMENT_SET_NO":999,"REV_AT_EPOCH":5897,"BSTAR":0.00011605,"MEAN_MOTION_DOT":0.00002592,"MEAN_MOTION_DDOT":0},{"OBJECT_NAME":"BRO-17","OBJECT_ID":"2025-276G","EPOCH":"2026-07-14T03:23:48.865920","CLASSIFICATION_TYPE":"U","MEAN_MOTION":15.18153889,"ECCENTRICITY":0.0005094,"INCLINATION":97.4185,"RA_OF_ASC_NODE":267.7299,"ARG_OF_PERICENTER":263.8627,"MEAN_ANOMALY":96.2027,"EPHEMERIS_TYPE":0,"NORAD_CAT_ID":66672,"ELEMENT_SET_NO":999,"REV_AT_EPOCH":3448,"BSTAR":0.00010832,"MEAN_MOTION_DOT":0.00002145,"MEAN_MOTION_DDOT":0},{"OBJECT_NAME":"BRO-20","OBJECT_ID":"2025-276J","EPOCH":"2026-07-14T04:24:20.918880","CLASSIFICATION_TYPE":"U","MEAN_MOTION":15.18321871,"ECCENTRICITY":0.0004671,"INCLINATION":97.4162,"RA_OF_ASC_NODE":267.7591,"ARG_OF_PERICENTER":268.2505,"MEAN_ANOMALY":91.8194,"EPHEMERIS_TYPE":0,"NORAD_CAT_ID":66674,"ELEMENT_SET_NO":999,"REV_AT_EPOCH":3449,"BSTAR":0.000081157,"MEAN_MOTION_DOT":0.00001598,"MEAN_MOTION_DDOT":0},{"OBJECT_NAME":"BRO-19","OBJECT_ID":"2026-067G","EPOCH":"2026-07-14T04:35:50.211168","CLASSIFICATION_TYPE":"U","MEAN_MOTION":15.18983916,"ECCENTRICITY":0.0002545,"INCLINATION":97.4492,"RA_OF_ASC_NODE":153.2652,"ARG_OF_PERICENTER":109.1328,"MEAN_ANOMALY":251.0182,"EPHEMERIS_TYPE":0,"NORAD_CAT_ID":68422,"ELEMENT_SET_NO":999,"REV_AT_EPOCH":1604,"BSTAR":0.000085178,"MEAN_MOTION_DOT":0.00001714,"MEAN_MOTION_DDOT":0},{"OBJECT_NAME":"BRO-21","OBJECT_ID":"2026-100AD","EPOCH":"2026-07-13T16:39:46.685376","CLASSIFICATION_TYPE":"U","MEAN_MOTION":15.21631889,"ECCENTRICITY":0.0005177,"INCLINATION":97.3978,"RA_OF_ASC_NODE":92.1503,"ARG_OF_PERICENTER":343.0236,"MEAN_ANOMALY":17.0826,"EPHEMERIS_TYPE":0,"NORAD_CAT_ID":69007,"ELEMENT_SET_NO":999,"REV_AT_EPOCH":1083,"BSTAR":0.000061678,"MEAN_MOTION_DOT":0.00001324,"MEAN_MOTION_DDOT":0},{"OBJECT_NAME":"BRO-22","OBJECT_ID":"2026-132C","EPOCH":"2026-07-14T04:09:55.476864","CLASSIFICATION_TYPE":"U","MEAN_MOTION":14.99803308,"ECCENTRICITY":0.0016493,"INCLINATION":97.683,"RA_OF_ASC_NODE":258.5076,"ARG_OF_PERICENTER":184.5697,"MEAN_ANOMALY":175.5378,"EPHEMERIS_TYPE":0,"NORAD_CAT_ID":69504,"ELEMENT_SET_NO":999,"REV_AT_EPOCH":482,"BSTAR":0.000059323,"MEAN_MOTION_DOT":0.00000676,"MEAN_MOTION_DDOT":0}]}
